[{"OBJECT_NAME":"STARLINK-30380","OBJECT_ID":"2023-134K","EPOCH":"2026-03-09T15:55:33.829536","MEAN_MOTION":15.27567352,"ECCENTRICITY":0.00017682,"INCLINATION":43.0014,"RA_OF_ASC_NODE":194.5511,"ARG_OF_PERICENTER":269.1236,"MEAN_ANOMALY":90.9413,"EPHEMERIS_TYPE":0,"CLASSIFICATION_TYPE":"U","NORAD_CAT_ID":57780,"ELEMENT_SET_NO":999,"REV_AT_EPOCH":13950,"BSTAR":-6.6602077e-5,"MEAN_MOTION_DOT":-2.094e-5,"MEAN_MOTION_DDOT":0},{"OBJECT_NAME":"239ALFEROV (RS61S)","OBJECT_ID":"2025-155F","EPOCH":"2026-03-09T21:46:33.382848","MEAN_MOTION":15.29933217,"ECCENTRICITY":0.00084878,"INCLINATION":97.4469,"RA_OF_ASC_NODE":37.6373,"ARG_OF_PERICENTER":151.5904,"MEAN_ANOMALY":208.58,"EPHEMERIS_TYPE":0,"CLASSIFICATION_TYPE":"U","NORAD_CAT_ID":64881,"ELEMENT_SET_NO":999,"REV_AT_EPOCH":6561,"BSTAR":0.00067233359,"MEAN_MOTION_DOT":0.00019457,"MEAN_MOTION_DDOT":0}]
